{"type":"FeatureCollection","features":[{"type":"Feature","properties":{"name":"raw_gps","stroke":"#ff3030","stroke-width":3,"count":40,"times":[1780275057409,1780275153575,1780275158600,1780275171648,1780275176660,1780275177705,1780275178706,1780275180705,1780275184706,1780275190705,1780275531225,1780275534706,1780275562709,1780275564702,1780275566148,1780275567711,1780275568699,1780275569912,1780275571482,1780275573175,1780275574706,1780275575978,1780275577699,1780275581469,1780275583711,1780275585494,1780275587074,1780275588634,1780275590337,1780275591708,1780275593354,1780275594960,1780275596598,1780275598193,1780275599702,1780275601395,1780275602992,1780275604593,1780275606256,1780275607937]},"geometry":{"type":"LineString","coordinates":[[126.7986121,37.4452806],[126.7979390,37.4478382],[126.8013045,37.4463336],[126.7986121,37.4449912],[126.8039968,37.4462291],[126.8002652,37.4454031],[126.8002945,37.4453959],[126.8003011,37.4454216],[126.8002971,37.4454481],[126.8002909,37.4454670],[126.7986121,37.4452806],[126.8003215,37.4455000],[126.8002976,37.4454973],[126.8002829,37.4454800],[126.8002702,37.4454628],[126.8002547,37.4454448],[126.8002382,37.4454323],[126.8002231,37.4454183],[126.8002079,37.4454041],[126.8001858,37.4453890],[126.8001630,37.4453745],[126.8001449,37.4453636],[126.8001254,37.4453501],[126.8001172,37.4453315],[126.8001317,37.4453111],[126.8001394,37.4452908],[126.8001457,37.4452705],[126.8001470,37.4452518],[126.8001297,37.4452328],[126.8001064,37.4452226],[126.8000789,37.4452129],[126.8000580,37.4452037],[126.8000377,37.4451940],[126.8000151,37.4451835],[126.7999948,37.4451714],[126.7999723,37.4451610],[126.7999497,37.4451490],[126.7999285,37.4451390],[126.7999047,37.4451294],[126.7998823,37.4451201]]}},{"type":"Feature","properties":{"name":"fused","stroke":"#2060ff","stroke-width":3,"count":40,"times":[1780275057941,1780275156487,1780275158690,1780275171684,1780275177063,1780275177729,1780275178725,1780275180738,1780275184742,1780275190740,1780275531341,1780275534732,1780275562778,1780275564744,1780275566164,1780275567755,1780275568732,1780275569919,1780275571539,1780275573188,1780275574744,1780275576002,1780275577752,1780275581566,1780275583733,1780275585514,1780275587085,1780275588650,1780275590355,1780275591738,1780275593371,1780275594974,1780275596647,1780275598206,1780275599749,1780275601411,1780275603017,1780275604630,1780275606281,1780275607944]},"geometry":{"type":"LineString","coordinates":[[126.7986121,37.4452806],[126.7979444,37.4478176],[126.7996177,37.4470786],[126.7992834,37.4463847],[126.7996451,37.4463727],[126.8002450,37.4454347],[126.8002700,37.4454151],[126.8002817,37.4454176],[126.8002831,37.4454204],[126.8002883,37.4454513],[126.8002867,37.4454511],[126.8002897,37.4454554],[126.8002935,37.4454757],[126.8002904,37.4454769],[126.8002860,37.4454739],[126.8002808,37.4454690],[126.8002744,37.4454635],[126.8002672,37.4454572],[126.8002595,37.4454503],[126.8002507,37.4454430],[126.8002507,37.4454430],[126.8002507,37.4454430],[126.8002507,37.4454430],[126.8002507,37.4454430],[126.8001317,37.4453111],[126.8001394,37.4452908],[126.8001425,37.4452807],[126.8001440,37.4452711],[126.8001405,37.4452615],[126.8001337,37.4452538],[126.8001245,37.4452470],[126.8001152,37.4452409],[126.8001065,37.4452357],[126.8000991,37.4452314],[126.8000927,37.4452277],[126.8000867,37.4452244],[126.8000867,37.4452244],[126.8000867,37.4452244],[126.8000867,37.4452244],[126.8000867,37.4452244]]}}]}