{"type":"FeatureCollection","features":[{"type":"Feature","properties":{"name":"raw_gps","stroke":"#ff3030","stroke-width":3,"segments":2,"points":33},"geometry":{"type":"MultiLineString","coordinates":[[[126.8002652,37.4454031],[126.8002945,37.4453959],[126.8003011,37.4454216],[126.8002971,37.4454481],[126.8002909,37.4454670]],[[126.8002976,37.4454973],[126.8002829,37.4454800],[126.8002702,37.4454628],[126.8002547,37.4454448],[126.8002382,37.4454323],[126.8002231,37.4454183],[126.8002079,37.4454041],[126.8001858,37.4453890],[126.8001630,37.4453745],[126.8001449,37.4453636],[126.8001254,37.4453501],[126.8001172,37.4453315],[126.8001317,37.4453111],[126.8001394,37.4452908],[126.8001457,37.4452705],[126.8001470,37.4452518],[126.8001297,37.4452328],[126.8001064,37.4452226],[126.8000789,37.4452129],[126.8000580,37.4452037],[126.8000377,37.4451940],[126.8000151,37.4451835],[126.7999948,37.4451714],[126.7999723,37.4451610],[126.7999497,37.4451490],[126.7999285,37.4451390],[126.7999047,37.4451294],[126.7998823,37.4451201]]]}},{"type":"Feature","properties":{"name":"fused","stroke":"#2060ff","stroke-width":3,"segments":2,"points":33},"geometry":{"type":"MultiLineString","coordinates":[[[126.8002450,37.4454347],[126.8002700,37.4454151],[126.8002817,37.4454176],[126.8002831,37.4454204],[126.8002883,37.4454513]],[[126.8002935,37.4454757],[126.8002904,37.4454769],[126.8002860,37.4454739],[126.8002808,37.4454690],[126.8002744,37.4454635],[126.8002672,37.4454572],[126.8002595,37.4454503],[126.8002507,37.4454430],[126.8002507,37.4454430],[126.8002507,37.4454430],[126.8002507,37.4454430],[126.8002507,37.4454430],[126.8001317,37.4453111],[126.8001394,37.4452908],[126.8001425,37.4452807],[126.8001440,37.4452711],[126.8001405,37.4452615],[126.8001337,37.4452538],[126.8001245,37.4452470],[126.8001152,37.4452409],[126.8001065,37.4452357],[126.8000991,37.4452314],[126.8000927,37.4452277],[126.8000867,37.4452244],[126.8000867,37.4452244],[126.8000867,37.4452244],[126.8000867,37.4452244],[126.8000867,37.4452244]]]}}]}