{"type":"FeatureCollection","features":[{"type":"Feature","properties":{"name":"raw_gps","stroke":"#ff3030","stroke-width":3,"count":34,"times":[1780278878377,1780278893421,1780278897694,1780278919910,1780278993603,1780278997695,1780278998693,1780279000693,1780279006694,1780279016695,1780279030970,1780279032694,1780279034367,1780279035525,1780279037105,1780279038695,1780279040695,1780279042649,1780279044314,1780279045875,1780279047487,1780279049067,1780279051161,1780279053243,1780279055544,1780279057727,1780279059932,1780279062454,1780279065445,1780279067786,1780279069973,1780279072125,1780279073866,1780279076287]},"geometry":{"type":"LineString","coordinates":[[126.7979390,37.4478382],[126.7979390,37.4455236],[126.8003154,37.4454961],[126.8003383,37.4454958],[126.7979390,37.4478382],[126.8003178,37.4455144],[126.8003007,37.4454923],[126.8002780,37.4454702],[126.8003028,37.4454687],[126.8003059,37.4454498],[126.8002960,37.4454176],[126.8002818,37.4454024],[126.8002735,37.4453838],[126.8002530,37.4453725],[126.8002287,37.4453595],[126.8002093,37.4453486],[126.8001844,37.4453377],[126.8001616,37.4453246],[126.8001463,37.4453095],[126.8001373,37.4452922],[126.8001291,37.4452728],[126.8001259,37.4452536],[126.8001149,37.4452330],[126.8000951,37.4452182],[126.8000694,37.4452084],[126.8000435,37.4451967],[126.8000198,37.4451847],[126.7999959,37.4451699],[126.7999690,37.4451637],[126.7999442,37.4451531],[126.7999190,37.4451433],[126.7998962,37.4451311],[126.7998769,37.4451207],[126.7998539,37.4451116]]}},{"type":"Feature","properties":{"name":"fused","stroke":"#2060ff","stroke-width":3,"count":34,"times":[1780278878886,1780278893475,1780278897718,1780278920070,1780278993685,1780278997737,1780278998710,1780279000717,1780279006720,1780279016717,1780279030979,1780279032726,1780279034383,1780279035537,1780279037128,1780279038731,1780279040713,1780279042658,1780279044329,1780279045890,1780279047503,1780279049080,1780279051186,1780279053308,1780279055565,1780279057740,1780279059959,1780279062479,1780279065459,1780279067799,1780279069982,1780279072183,1780279073875,1780279076302]},"geometry":{"type":"LineString","coordinates":[[126.7979390,37.4478382],[126.7979390,37.4455964],[126.8002618,37.4454984],[126.8002755,37.4454979],[126.8002755,37.4454979],[126.8003107,37.4455116],[126.8003061,37.4455027],[126.8002961,37.4454911],[126.8002970,37.4454880],[126.8003038,37.4454587],[126.8003047,37.4454380],[126.8003009,37.4454320],[126.8002978,37.4454266],[126.8002931,37.4454209],[126.8002868,37.4454149],[126.8002796,37.4454088],[126.8002712,37.4454025],[126.8002712,37.4454025],[126.8002712,37.4454025],[126.8002712,37.4454025],[126.8002712,37.4454025],[126.8001259,37.4452536],[126.8001149,37.4452330],[126.8001050,37.4452256],[126.8000930,37.4452198],[126.8000806,37.4452140],[126.8000698,37.4452088],[126.8000606,37.4452040],[126.8000231,37.4451827],[126.7999943,37.4451667],[126.7999725,37.4451548],[126.7999556,37.4451454],[126.7999426,37.4451381],[126.7999319,37.4451322]]}}]}