{"type":"FeatureCollection","features":[{"type":"Feature","properties":{"name":"raw_gps","stroke":"#ff3030","stroke-width":3,"count":80,"times":[1780273002229,1780273007253,1780273012269,1780273026057,1780273161867,1780273166350,1780273168594,1780273170713,1780273171712,1780273172877,1780273175712,1780273177712,1780273179711,1780273181711,1780273187711,1780273191906,1780273197711,1780273205712,1780273215711,1780273224713,1780273228706,1780273234709,1780273240713,1780273243718,1780273245703,1780273246710,1780273248421,1780273249713,1780273251018,1780273252222,1780273253714,1780273255340,1780273256918,1780273258716,1780273260621,1780273262302,1780273263706,1780273265454,1780273266707,1780273268037,1780273269598,1780273271317,1780273272706,1780273274397,1780273275716,1780273277712,1780273279462,1780273280717,1780273282392,1780273284051,1780273285706,1780273287661,1780273289298,1780273292724,1780273294718,1780273296683,1780273298194,1780273299715,1780273301653,1780273303215,1780273304709,1780273306298,1780273307717,1780273309481,1780273311000,1780273312525,1780273314053,1780273315531,1780273317142,1780273319137,1780273320717,1780273322339,1780273324279,1780273326320,1780273327923,1780273329453,1780273330594,1780273331706,1780273332968,1780273334637]},"geometry":{"type":"LineString","coordinates":[[126.7979390,37.4478382],[126.7977001,37.4483352],[126.7978128,37.4481006],[126.7979390,37.4455236],[126.8002503,37.4462034],[126.8002983,37.4462090],[126.8003139,37.4462298],[126.8003135,37.4461267],[126.8002874,37.4459574],[126.8002742,37.4458917],[126.8002392,37.4458483],[126.8002266,37.4458150],[126.8002468,37.4457090],[126.8002474,37.4456842],[126.8002450,37.4456658],[126.8002528,37.4456481],[126.8002568,37.4456303],[126.8002755,37.4456197],[126.8002974,37.4456097],[126.8003080,37.4455897],[126.8003164,37.4455664],[126.8003245,37.4455468],[126.8003280,37.4455230],[126.8003290,37.4455011],[126.8003353,37.4454835],[126.8003310,37.4454646],[126.8003279,37.4454425],[126.8003154,37.4454240],[126.8003036,37.4454046],[126.8002928,37.4453885],[126.8002746,37.4453686],[126.8002582,37.4453495],[126.8002460,37.4453313],[126.8002362,37.4453116],[126.8002292,37.4452911],[126.8002180,37.4452715],[126.8002059,37.4452553],[126.8001947,37.4452349],[126.8001737,37.4452240],[126.8001509,37.4452164],[126.8001229,37.4452115],[126.8000911,37.4452063],[126.8000654,37.4451990],[126.8000410,37.4451893],[126.8000206,37.4451790],[126.7999888,37.4451642],[126.7999653,37.4451510],[126.7999476,37.4451396],[126.7999249,37.4451264],[126.7999016,37.4451161],[126.7998793,37.4451075],[126.7998521,37.4451077],[126.7998373,37.4451230],[126.7998150,37.4451177],[126.7998032,37.4451011],[126.7997867,37.4450825],[126.7997731,37.4450655],[126.7997582,37.4450509],[126.7997375,37.4450345],[126.7997167,37.4450217],[126.7996975,37.4450090],[126.7996798,37.4449948],[126.7996601,37.4449833],[126.7996332,37.4449737],[126.7996093,37.4449631],[126.7995861,37.4449542],[126.7995626,37.4449445],[126.7995419,37.4449358],[126.7995196,37.4449263],[126.7994950,37.4449160],[126.7994738,37.4449076],[126.7994521,37.4449004],[126.7994260,37.4448933],[126.7993982,37.4448977],[126.7993756,37.4449098],[126.7993584,37.4449287],[126.7993492,37.4449461],[126.7993388,37.4449652],[126.7993253,37.4449817],[126.7993085,37.4449998]]}},{"type":"Feature","properties":{"name":"fused","stroke":"#2060ff","stroke-width":3,"count":80,"times":[1780273002389,1780273007352,1780273012364,1780273029077,1780273165704,1780273166362,1780273168603,1780273170741,1780273171737,1780273172893,1780273175742,1780273177744,1780273179862,1780273181733,1780273187746,1780273192018,1780273197751,1780273205751,1780273215746,1780273224738,1780273228736,1780273234753,1780273240745,1780273243741,1780273245722,1780273246744,1780273248442,1780273249745,1780273251038,1780273252226,1780273253737,1780273255354,1780273256930,1780273258735,1780273260637,1780273262316,1780273263772,1780273265469,1780273266743,1780273268062,1780273269609,1780273271326,1780273272741,1780273274413,1780273275756,1780273277755,1780273279469,1780273280750,1780273282405,1780273284067,1780273285739,1780273287684,1780273289312,1780273292750,1780273294759,1780273296703,1780273298202,1780273299747,1780273301667,1780273303228,1780273304747,1780273306317,1780273307746,1780273309495,1780273311009,1780273312536,1780273314063,1780273315536,1780273317161,1780273319143,1780273320750,1780273322350,1780273324287,1780273326335,1780273327929,1780273329462,1780273330606,1780273331756,1780273333065,1780273334646]},"geometry":{"type":"LineString","coordinates":[[126.7979390,37.4478382],[126.7977020,37.4483312],[126.7977572,37.4482164],[126.7977773,37.4479182],[126.7977773,37.4479182],[126.7977773,37.4479182],[126.7977773,37.4479182],[126.7977773,37.4479182],[126.8002874,37.4459574],[126.8002742,37.4458918],[126.8002497,37.4458613],[126.8002376,37.4458371],[126.8002421,37.4457743],[126.8002445,37.4457332],[126.8002449,37.4456799],[126.8002484,37.4456659],[126.8002513,37.4456536],[126.8002587,37.4456432],[126.8002659,37.4456370],[126.8002736,37.4456283],[126.8002814,37.4456170],[126.8002886,37.4456054],[126.8002919,37.4455984],[126.8002940,37.4455930],[126.8002959,37.4455878],[126.8002975,37.4455823],[126.8002989,37.4455757],[126.8002989,37.4455757],[126.8002989,37.4455757],[126.8002989,37.4455757],[126.8002989,37.4455757],[126.8002582,37.4453495],[126.8002460,37.4453313],[126.8002411,37.4453215],[126.8002373,37.4453117],[126.8002327,37.4453021],[126.8002276,37.4452932],[126.8002227,37.4452845],[126.8002167,37.4452772],[126.8002100,37.4452710],[126.8002020,37.4452655],[126.8001920,37.4452602],[126.8001805,37.4452546],[126.8001805,37.4452546],[126.8001805,37.4452546],[126.8001805,37.4452546],[126.8001805,37.4452546],[126.7999415,37.4451351],[126.7999233,37.4451245],[126.7999127,37.4451204],[126.7999020,37.4451163],[126.7998903,37.4451143],[126.7998810,37.4451140],[126.7998708,37.4451123],[126.7998619,37.4451087],[126.7998528,37.4451055],[126.7998446,37.4451014],[126.7998368,37.4450968],[126.7998289,37.4450919],[126.7998210,37.4450869],[126.7998129,37.4450818],[126.7998049,37.4450766],[126.7998049,37.4450766],[126.7998049,37.4450766],[126.7998049,37.4450766],[126.7998049,37.4450766],[126.7995626,37.4449445],[126.7995419,37.4449358],[126.7995306,37.4449310],[126.7995186,37.4449259],[126.7995074,37.4449214],[126.7994965,37.4449172],[126.7994849,37.4449133],[126.7994726,37.4449111],[126.7994617,37.4449109],[126.7994520,37.4449126],[126.7994433,37.4449154],[126.7994433,37.4449154],[126.7994433,37.4449154],[126.7994433,37.4449154]]}}]}