{"type":"FeatureCollection","features":[{"type":"Feature","properties":{"name":"raw_gps","stroke":"#ff3030","stroke-width":3,"count":167,"times":[1780285013602,1780285017041,1780285027034,1780285050431,1780285051676,1780285053203,1780285054267,1780285055750,1780285057309,1780285063676,1780285067110,1780285068631,1780285070172,1780285071818,1780285073676,1780285075677,1780285077250,1780285079226,1780285081308,1780285083531,1780285085572,1780285087551,1780285089586,1780285091207,1780285093312,1780285094930,1780285096852,1780285098808,1780285100309,1780285101677,1780285103292,1780285104808,1780285106863,1780285108368,1780285109678,1780285111470,1780285112411,1780285113677,1780285115028,1780285116067,1780285117671,1780285118896,1780285120212,1780285121677,1780285123342,1780285124950,1780285126471,1780285127931,1780285129676,1780285131207,1780285132868,1780285134150,1780285137072,1780285138322,1780285139949,1780285141590,1780285142631,1780285143791,1780285145676,1780285147173,1780285148228,1780285149676,1780285151431,1780285152815,1780285154508,1780285155969,1780285157629,1780285159084,1780285160611,1780285162306,1780285165116,1780285166996,1780285169147,1780285171404,1780285173676,1780285176151,1780285195676,1780285197355,1780285198471,1780285199925,1780285201502,1780285202547,1780285204010,1780285205632,1780285207136,1780285208734,1780285210936,1780285212992,1780285217676,1780285251875,1780285253676,1780285255371,1780285256861,1780285258385,1780285259869,1780285261431,1780285263675,1780285265595,1780285267096,1780285268652,1780285270817,1780285272805,1780285274761,1780285276993,1780285278934,1780285280617,1780285283022,1780285284566,1780285286624,1780285288551,1780285290732,1780285292833,1780285294491,1780285296557,1780285298309,1780285299799,1780285301676,1780285303677,1780285305668,1780285307314,1780285308895,1780285310467,1780285312109,1780285313675,1780285315225,1780285316886,1780285318387,1780285319975,1780285321677,1780285323677,1780285325349,1780285326827,1780285328444,1780285329966,1780285331675,1780285333690,1780285335354,1780285337377,1780285339068,1780285340549,1780285342234,1780285344188,1780285345676,1780285347349,1780285349491,1780285351477,1780285353086,1780285355019,1780285356585,1780285358105,1780285359674,1780285361271,1780285362769,1780285364310,1780285365948,1780285367445,1780285368965,1780285370408,1780285371928,1780285373675,1780285375414,1780285376997,1780285378595,1780285380087,1780285381676,1780285383676,1780285385674]},"geometry":{"type":"LineString","coordinates":[[126.8013045,37.4463336],[126.8002691,37.4454264],[126.8002900,37.4454194],[126.8002692,37.4454106],[126.8002563,37.4453956],[126.8002475,37.4453777],[126.8002345,37.4453629],[126.8002191,37.4453477],[126.8002050,37.4453330],[126.8001815,37.4453322],[126.8001540,37.4453200],[126.8001334,37.4453034],[126.8001179,37.4452882],[126.8001065,37.4452723],[126.8001008,37.4452535],[126.8000903,37.4452327],[126.8000733,37.4452206],[126.8000497,37.4452089],[126.8000239,37.4452011],[126.7999963,37.4451899],[126.7999723,37.4451788],[126.7999480,37.4451710],[126.7999259,37.4451553],[126.7999063,37.4451457],[126.7998804,37.4451368],[126.7998617,37.4451259],[126.7998359,37.4451185],[126.7998134,37.4451052],[126.7998009,37.4450865],[126.7997936,37.4450673],[126.7997856,37.4450467],[126.7997810,37.4450256],[126.7997715,37.4450036],[126.7997539,37.4449887],[126.7997350,37.4449778],[126.7997116,37.4449637],[126.7996890,37.4449577],[126.7996681,37.4449480],[126.7996472,37.4449398],[126.7996256,37.4449331],[126.7996030,37.4449237],[126.7995820,37.4449153],[126.7995623,37.4449058],[126.7995400,37.4448960],[126.7995174,37.4448862],[126.7994929,37.4448773],[126.7994674,37.4448685],[126.7994442,37.4448643],[126.7994176,37.4448616],[126.7993941,37.4448609],[126.7993744,37.4448714],[126.7993597,37.4448877],[126.7993420,37.4449055],[126.7993316,37.4449229],[126.7993230,37.4449436],[126.7993180,37.4449615],[126.7993128,37.4449801],[126.7993065,37.4449982],[126.7992956,37.4450238],[126.7992870,37.4450421],[126.7992696,37.4450562],[126.7992544,37.4450734],[126.7992397,37.4450925],[126.7992254,37.4451098],[126.7992136,37.4451298],[126.7992067,37.4451470],[126.7991983,37.4451650],[126.7991908,37.4451831],[126.7991820,37.4452018],[126.7991735,37.4452188],[126.7991611,37.4452415],[126.7991507,37.4452575],[126.7991376,37.4452762],[126.7991218,37.4452956],[126.7991084,37.4453142],[126.7990939,37.4453311],[126.7990692,37.4453101],[126.7990503,37.4452974],[126.7990335,37.4452826],[126.7990159,37.4452648],[126.7990000,37.4452502],[126.7989881,37.4452319],[126.7989723,37.4452124],[126.7989553,37.4451997],[126.7989343,37.4451865],[126.7989121,37.4451791],[126.7988870,37.4451796],[126.7988666,37.4451880],[126.7988493,37.4452005],[126.7988531,37.4452205],[126.7988431,37.4452437],[126.7988301,37.4452625],[126.7988177,37.4452837],[126.7988021,37.4453019],[126.7987869,37.4453169],[126.7987753,37.4453329],[126.7987578,37.4453569],[126.7987450,37.4453768],[126.7987333,37.4453958],[126.7987211,37.4454134],[126.7987077,37.4454341],[126.7986973,37.4454535],[126.7986877,37.4454726],[126.7986754,37.4454924],[126.7986618,37.4455123],[126.7986545,37.4455312],[126.7986421,37.4455569],[126.7986288,37.4455723],[126.7986124,37.4455923],[126.7985975,37.4456119],[126.7985773,37.4456302],[126.7985601,37.4456486],[126.7985434,37.4456611],[126.7985191,37.4456751],[126.7985029,37.4456901],[126.7984880,37.4457037],[126.7984663,37.4457165],[126.7984401,37.4457303],[126.7984175,37.4457447],[126.7983930,37.4457561],[126.7983709,37.4457702],[126.7983507,37.4457847],[126.7983301,37.4457989],[126.7983107,37.4458125],[126.7982926,37.4458269],[126.7982737,37.4458428],[126.7982557,37.4458588],[126.7982376,37.4458750],[126.7982190,37.4458889],[126.7981994,37.4459083],[126.7981896,37.4459248],[126.7981753,37.4459406],[126.7981577,37.4459554],[126.7981430,37.4459712],[126.7981286,37.4459884],[126.7981101,37.4460045],[126.7980917,37.4460185],[126.7980745,37.4460359],[126.7980619,37.4460540],[126.7980501,37.4460699],[126.7980332,37.4460842],[126.7980131,37.4461020],[126.7979975,37.4461158],[126.7979791,37.4461292],[126.7979577,37.4461452],[126.7979371,37.4461605],[126.7979163,37.4461715],[126.7978942,37.4461836],[126.7978755,37.4461943],[126.7978559,37.4462047],[126.7978349,37.4462148],[126.7978165,37.4462254],[126.7977996,37.4462383],[126.7977811,37.4462519],[126.7977611,37.4462661],[126.7977431,37.4462776],[126.7977232,37.4462909],[126.7977046,37.4463038],[126.7976851,37.4463152],[126.7976620,37.4463274],[126.7976406,37.4463391],[126.7976200,37.4463496],[126.7975982,37.4463602],[126.7975772,37.4463673],[126.7975552,37.4463765],[126.7975285,37.4463870],[126.7975001,37.4463826]]}},{"type":"Feature","properties":{"name":"fused","stroke":"#2060ff","stroke-width":3,"count":167,"times":[1780285013737,1780285017062,1780285027048,1780285050448,1780285051720,1780285053217,1780285054295,1780285055769,1780285057321,1780285063720,1780285067125,1780285068652,1780285070194,1780285071827,1780285073725,1780285075717,1780285077264,1780285079242,1780285081317,1780285083546,1780285085586,1780285087566,1780285089605,1780285091224,1780285093328,1780285094945,1780285096868,1780285098821,1780285100332,1780285101719,1780285103307,1780285104818,1780285106882,1780285108375,1780285109695,1780285111479,1780285112420,1780285113705,1780285115042,1780285116077,1780285117694,1780285119010,1780285120228,1780285121708,1780285123351,1780285124961,1780285126482,1780285127941,1780285129733,1780285131229,1780285132877,1780285134158,1780285137083,1780285138336,1780285139960,1780285141602,1780285142641,1780285143804,1780285145703,1780285147182,1780285148247,1780285149702,1780285151442,1780285152820,1780285154520,1780285155983,1780285157638,1780285159092,1780285160633,1780285162322,1780285165127,1780285167018,1780285169218,1780285171416,1780285173704,1780285176178,1780285195704,1780285197365,1780285198513,1780285199939,1780285201506,1780285202562,1780285204022,1780285205645,1780285207152,1780285208753,1780285210948,1780285213009,1780285217705,1780285251887,1780285253720,1780285255385,1780285256869,1780285258399,1780285259876,1780285261451,1780285263718,1780285265617,1780285267108,1780285268670,1780285270846,1780285272809,1780285274795,1780285277000,1780285278944,1780285280640,1780285283031,1780285284575,1780285286639,1780285288577,1780285290744,1780285292841,1780285294499,1780285296572,1780285298324,1780285299929,1780285301701,1780285303715,1780285305680,1780285307330,1780285308904,1780285310499,1780285312124,1780285313711,1780285315233,1780285316901,1780285318405,1780285319982,1780285321709,1780285323715,1780285325360,1780285326839,1780285328457,1780285329977,1780285331696,1780285333700,1780285335362,1780285337388,1780285339076,1780285340560,1780285342245,1780285344196,1780285345701,1780285347360,1780285349504,1780285351485,1780285353090,1780285355055,1780285356594,1780285358113,1780285359704,1780285361281,1780285362779,1780285364318,1780285365962,1780285367453,1780285368983,1780285370423,1780285371942,1780285373717,1780285375429,1780285377008,1780285378606,1780285380105,1780285381703,1780285383704,1780285385709]},"geometry":{"type":"LineString","coordinates":[[126.8013045,37.4463336],[126.8002693,37.4454266],[126.8002890,37.4454197],[126.8002780,37.4454146],[126.8002707,37.4454082],[126.8002655,37.4454015],[126.8002601,37.4453948],[126.8002547,37.4453885],[126.8002493,37.4453824],[126.8002401,37.4453757],[126.8002294,37.4453687],[126.8002294,37.4453687],[126.8002294,37.4453687],[126.8002294,37.4453687],[126.8002294,37.4453687],[126.8000903,37.4452327],[126.8000733,37.4452206],[126.8000623,37.4452151],[126.8000511,37.4452110],[126.8000155,37.4451889],[126.7999913,37.4451734],[126.7999731,37.4451620],[126.7999580,37.4451524],[126.7999448,37.4451447],[126.7999322,37.4451383],[126.7999219,37.4451328],[126.7999128,37.4451282],[126.7999032,37.4451234],[126.7998945,37.4451182],[126.7998865,37.4451142],[126.7998865,37.4451142],[126.7998865,37.4451142],[126.7998865,37.4451142],[126.7998865,37.4451142],[126.7997480,37.4449982],[126.7997116,37.4449637],[126.7997000,37.4449606],[126.7996894,37.4449564],[126.7996785,37.4449521],[126.7996673,37.4449481],[126.7996560,37.4449438],[126.7996442,37.4449393],[126.7996328,37.4449346],[126.7996218,37.4449300],[126.7996113,37.4449256],[126.7996113,37.4449256],[126.7996113,37.4449256],[126.7996113,37.4449256],[126.7996113,37.4449256],[126.7993941,37.4448609],[126.7993744,37.4448714],[126.7993672,37.4448794],[126.7993592,37.4448877],[126.7993522,37.4448966],[126.7993461,37.4449065],[126.7993414,37.4449157],[126.7993371,37.4449252],[126.7993332,37.4449346],[126.7993289,37.4449448],[126.7993289,37.4449448],[126.7993289,37.4449448],[126.7993289,37.4449448],[126.7993289,37.4449448],[126.7992254,37.4451098],[126.7992136,37.4451298],[126.7992101,37.4451384],[126.7992062,37.4451472],[126.7992023,37.4451564],[126.7991981,37.4451657],[126.7991940,37.4451746],[126.7991890,37.4451847],[126.7991840,37.4451942],[126.7991789,37.4452033],[126.7991789,37.4452033],[126.7991789,37.4452033],[126.7991789,37.4452033],[126.7991789,37.4452033],[126.7990615,37.4453118],[126.7990473,37.4453005],[126.7990470,37.4453022],[126.7990473,37.4453050],[126.7990475,37.4453060],[126.7990470,37.4453061],[126.7990576,37.4453197],[126.7990660,37.4453306],[126.7990728,37.4453394],[126.7990782,37.4453464],[126.7988666,37.4451880],[126.7988493,37.4452005],[126.7988510,37.4452096],[126.7988491,37.4452180],[126.7988458,37.4452255],[126.7988418,37.4452338],[126.7988360,37.4452439],[126.7988294,37.4452536],[126.7988227,37.4452634],[126.7988153,37.4452741],[126.7988153,37.4452741],[126.7988153,37.4452741],[126.7988153,37.4452741],[126.7988153,37.4452741],[126.7986973,37.4454535],[126.7986877,37.4454726],[126.7986817,37.4454823],[126.7986754,37.4454918],[126.7986706,37.4455008],[126.7986803,37.4455342],[126.7986843,37.4455587],[126.7986844,37.4455783],[126.7986819,37.4455949],[126.7986768,37.4456093],[126.7986707,37.4456221],[126.7986751,37.4456292],[126.7986786,37.4456348],[126.7986814,37.4456394],[126.7986837,37.4456430],[126.7984735,37.4457282],[126.7984475,37.4457424],[126.7984395,37.4457543],[126.7984302,37.4457648],[126.7984205,37.4457753],[126.7984111,37.4457856],[126.7984017,37.4457955],[126.7983929,37.4458048],[126.7983845,37.4458137],[126.7983755,37.4458225],[126.7983783,37.4458270],[126.7983805,37.4458306],[126.7983823,37.4458334],[126.7983837,37.4458357],[126.7981935,37.4459311],[126.7981786,37.4459459],[126.7981707,37.4459552],[126.7981637,37.4459642],[126.7981566,37.4459731],[126.7981488,37.4459814],[126.7981403,37.4459893],[126.7981304,37.4459963],[126.7981210,37.4460043],[126.7981122,37.4460124],[126.7981041,37.4460198],[126.7981041,37.4460198],[126.7981041,37.4460198],[126.7981041,37.4460198],[126.7981041,37.4460198],[126.7979339,37.4461552],[126.7979132,37.4461665],[126.7979001,37.4461711],[126.7978906,37.4461743],[126.7978826,37.4461766],[126.7978756,37.4461785],[126.7978697,37.4461802],[126.7978646,37.4461822],[126.7978598,37.4461844],[126.7978647,37.4461789],[126.7978685,37.4461745],[126.7978716,37.4461710],[126.7978741,37.4461682],[126.7976851,37.4463152],[126.7976620,37.4463274],[126.7976514,37.4463332],[126.7976410,37.4463386],[126.7976301,37.4463441],[126.7976199,37.4463486],[126.7976099,37.4463529],[126.7975993,37.4463574],[126.7975879,37.4463602]]}}]}