{"type":"FeatureCollection","features":[{"type":"Feature","properties":{"name":"raw_gps","stroke":"#ff3030","stroke-width":3,"segments":3,"points":164},"geometry":{"type":"MultiLineString","coordinates":[[[126.8002692,37.4454106],[126.8002563,37.4453956],[126.8002475,37.4453777],[126.8002345,37.4453629],[126.8002191,37.4453477],[126.8002050,37.4453330],[126.8001815,37.4453322],[126.8001540,37.4453200],[126.8001334,37.4453034],[126.8001179,37.4452882],[126.8001065,37.4452723],[126.8001008,37.4452535],[126.8000903,37.4452327],[126.8000733,37.4452206],[126.8000497,37.4452089],[126.8000239,37.4452011],[126.7999963,37.4451899],[126.7999723,37.4451788],[126.7999480,37.4451710],[126.7999259,37.4451553],[126.7999063,37.4451457],[126.7998804,37.4451368],[126.7998617,37.4451259],[126.7998359,37.4451185],[126.7998134,37.4451052],[126.7998009,37.4450865],[126.7997936,37.4450673],[126.7997856,37.4450467],[126.7997810,37.4450256],[126.7997715,37.4450036],[126.7997539,37.4449887],[126.7997350,37.4449778],[126.7997116,37.4449637],[126.7996890,37.4449577],[126.7996681,37.4449480],[126.7996472,37.4449398],[126.7996256,37.4449331],[126.7996030,37.4449237],[126.7995820,37.4449153],[126.7995623,37.4449058],[126.7995400,37.4448960],[126.7995174,37.4448862],[126.7994929,37.4448773],[126.7994674,37.4448685],[126.7994442,37.4448643],[126.7994176,37.4448616],[126.7993941,37.4448609],[126.7993744,37.4448714],[126.7993597,37.4448877],[126.7993420,37.4449055],[126.7993316,37.4449229],[126.7993230,37.4449436],[126.7993180,37.4449615],[126.7993128,37.4449801],[126.7993065,37.4449982],[126.7992956,37.4450238],[126.7992870,37.4450421],[126.7992696,37.4450562],[126.7992544,37.4450734],[126.7992397,37.4450925],[126.7992254,37.4451098],[126.7992136,37.4451298],[126.7992067,37.4451470],[126.7991983,37.4451650],[126.7991908,37.4451831],[126.7991820,37.4452018],[126.7991735,37.4452188],[126.7991611,37.4452415],[126.7991507,37.4452575],[126.7991376,37.4452762],[126.7991218,37.4452956],[126.7991084,37.4453142],[126.7990939,37.4453311]],[[126.7990692,37.4453101],[126.7990503,37.4452974],[126.7990335,37.4452826],[126.7990159,37.4452648],[126.7990000,37.4452502],[126.7989881,37.4452319],[126.7989723,37.4452124],[126.7989553,37.4451997],[126.7989343,37.4451865],[126.7989121,37.4451791],[126.7988870,37.4451796],[126.7988666,37.4451880],[126.7988493,37.4452005]],[[126.7988531,37.4452205],[126.7988431,37.4452437],[126.7988301,37.4452625],[126.7988177,37.4452837],[126.7988021,37.4453019],[126.7987869,37.4453169],[126.7987753,37.4453329],[126.7987578,37.4453569],[126.7987450,37.4453768],[126.7987333,37.4453958],[126.7987211,37.4454134],[126.7987077,37.4454341],[126.7986973,37.4454535],[126.7986877,37.4454726],[126.7986754,37.4454924],[126.7986618,37.4455123],[126.7986545,37.4455312],[126.7986421,37.4455569],[126.7986288,37.4455723],[126.7986124,37.4455923],[126.7985975,37.4456119],[126.7985773,37.4456302],[126.7985601,37.4456486],[126.7985434,37.4456611],[126.7985191,37.4456751],[126.7985029,37.4456901],[126.7984880,37.4457037],[126.7984663,37.4457165],[126.7984401,37.4457303],[126.7984175,37.4457447],[126.7983930,37.4457561],[126.7983709,37.4457702],[126.7983507,37.4457847],[126.7983301,37.4457989],[126.7983107,37.4458125],[126.7982926,37.4458269],[126.7982737,37.4458428],[126.7982557,37.4458588],[126.7982376,37.4458750],[126.7982190,37.4458889],[126.7981994,37.4459083],[126.7981896,37.4459248],[126.7981753,37.4459406],[126.7981577,37.4459554],[126.7981430,37.4459712],[126.7981286,37.4459884],[126.7981101,37.4460045],[126.7980917,37.4460185],[126.7980745,37.4460359],[126.7980619,37.4460540],[126.7980501,37.4460699],[126.7980332,37.4460842],[126.7980131,37.4461020],[126.7979975,37.4461158],[126.7979791,37.4461292],[126.7979577,37.4461452],[126.7979371,37.4461605],[126.7979163,37.4461715],[126.7978942,37.4461836],[126.7978755,37.4461943],[126.7978559,37.4462047],[126.7978349,37.4462148],[126.7978165,37.4462254],[126.7977996,37.4462383],[126.7977811,37.4462519],[126.7977611,37.4462661],[126.7977431,37.4462776],[126.7977232,37.4462909],[126.7977046,37.4463038],[126.7976851,37.4463152],[126.7976620,37.4463274],[126.7976406,37.4463391],[126.7976200,37.4463496],[126.7975982,37.4463602],[126.7975772,37.4463673],[126.7975552,37.4463765],[126.7975285,37.4463870],[126.7975001,37.4463826]]]}},{"type":"Feature","properties":{"name":"fused","stroke":"#2060ff","stroke-width":3,"segments":3,"points":164},"geometry":{"type":"MultiLineString","coordinates":[[[126.8002780,37.4454146],[126.8002707,37.4454082],[126.8002655,37.4454015],[126.8002601,37.4453948],[126.8002547,37.4453885],[126.8002493,37.4453824],[126.8002401,37.4453757],[126.8002294,37.4453687],[126.8002294,37.4453687],[126.8002294,37.4453687],[126.8002294,37.4453687],[126.8002294,37.4453687],[126.8000903,37.4452327],[126.8000733,37.4452206],[126.8000623,37.4452151],[126.8000511,37.4452110],[126.8000155,37.4451889],[126.7999913,37.4451734],[126.7999731,37.4451620],[126.7999580,37.4451524],[126.7999448,37.4451447],[126.7999322,37.4451383],[126.7999219,37.4451328],[126.7999128,37.4451282],[126.7999032,37.4451234],[126.7998945,37.4451182],[126.7998865,37.4451142],[126.7998865,37.4451142],[126.7998865,37.4451142],[126.7998865,37.4451142],[126.7998865,37.4451142],[126.7997480,37.4449982],[126.7997116,37.4449637],[126.7997000,37.4449606],[126.7996894,37.4449564],[126.7996785,37.4449521],[126.7996673,37.4449481],[126.7996560,37.4449438],[126.7996442,37.4449393],[126.7996328,37.4449346],[126.7996218,37.4449300],[126.7996113,37.4449256],[126.7996113,37.4449256],[126.7996113,37.4449256],[126.7996113,37.4449256],[126.7996113,37.4449256],[126.7993941,37.4448609],[126.7993744,37.4448714],[126.7993672,37.4448794],[126.7993592,37.4448877],[126.7993522,37.4448966],[126.7993461,37.4449065],[126.7993414,37.4449157],[126.7993371,37.4449252],[126.7993332,37.4449346],[126.7993289,37.4449448],[126.7993289,37.4449448],[126.7993289,37.4449448],[126.7993289,37.4449448],[126.7993289,37.4449448],[126.7992254,37.4451098],[126.7992136,37.4451298],[126.7992101,37.4451384],[126.7992062,37.4451472],[126.7992023,37.4451564],[126.7991981,37.4451657],[126.7991940,37.4451746],[126.7991890,37.4451847],[126.7991840,37.4451942],[126.7991789,37.4452033],[126.7991789,37.4452033],[126.7991789,37.4452033],[126.7991789,37.4452033]],[[126.7991789,37.4452033],[126.7990615,37.4453118],[126.7990473,37.4453005],[126.7990470,37.4453022],[126.7990473,37.4453050],[126.7990475,37.4453060],[126.7990470,37.4453061],[126.7990576,37.4453197],[126.7990660,37.4453306],[126.7990728,37.4453394],[126.7990782,37.4453464],[126.7988666,37.4451880],[126.7988493,37.4452005]],[[126.7988510,37.4452096],[126.7988491,37.4452180],[126.7988458,37.4452255],[126.7988418,37.4452338],[126.7988360,37.4452439],[126.7988294,37.4452536],[126.7988227,37.4452634],[126.7988153,37.4452741],[126.7988153,37.4452741],[126.7988153,37.4452741],[126.7988153,37.4452741],[126.7988153,37.4452741],[126.7986973,37.4454535],[126.7986877,37.4454726],[126.7986817,37.4454823],[126.7986754,37.4454918],[126.7986706,37.4455008],[126.7986803,37.4455342],[126.7986843,37.4455587],[126.7986844,37.4455783],[126.7986819,37.4455949],[126.7986768,37.4456093],[126.7986707,37.4456221],[126.7986751,37.4456292],[126.7986786,37.4456348],[126.7986814,37.4456394],[126.7986837,37.4456430],[126.7984735,37.4457282],[126.7984475,37.4457424],[126.7984395,37.4457543],[126.7984302,37.4457648],[126.7984205,37.4457753],[126.7984111,37.4457856],[126.7984017,37.4457955],[126.7983929,37.4458048],[126.7983845,37.4458137],[126.7983755,37.4458225],[126.7983783,37.4458270],[126.7983805,37.4458306],[126.7983823,37.4458334],[126.7983837,37.4458357],[126.7981935,37.4459311],[126.7981786,37.4459459],[126.7981707,37.4459552],[126.7981637,37.4459642],[126.7981566,37.4459731],[126.7981488,37.4459814],[126.7981403,37.4459893],[126.7981304,37.4459963],[126.7981210,37.4460043],[126.7981122,37.4460124],[126.7981041,37.4460198],[126.7981041,37.4460198],[126.7981041,37.4460198],[126.7981041,37.4460198],[126.7981041,37.4460198],[126.7979339,37.4461552],[126.7979132,37.4461665],[126.7979001,37.4461711],[126.7978906,37.4461743],[126.7978826,37.4461766],[126.7978756,37.4461785],[126.7978697,37.4461802],[126.7978646,37.4461822],[126.7978598,37.4461844],[126.7978647,37.4461789],[126.7978685,37.4461745],[126.7978716,37.4461710],[126.7978741,37.4461682],[126.7976851,37.4463152],[126.7976620,37.4463274],[126.7976514,37.4463332],[126.7976410,37.4463386],[126.7976301,37.4463441],[126.7976199,37.4463486],[126.7976099,37.4463529],[126.7975993,37.4463574],[126.7975879,37.4463602]]]}}]}