{"type":"FeatureCollection","features":[{"type":"Feature","properties":{"name":"raw_gps","stroke":"#ff3030","stroke-width":3,"segments":1,"points":76},"geometry":{"type":"MultiLineString","coordinates":[[[126.8002503,37.4462034],[126.8002983,37.4462090],[126.8003139,37.4462298],[126.8003135,37.4461267],[126.8002874,37.4459574],[126.8002742,37.4458917],[126.8002392,37.4458483],[126.8002266,37.4458150],[126.8002468,37.4457090],[126.8002474,37.4456842],[126.8002450,37.4456658],[126.8002528,37.4456481],[126.8002568,37.4456303],[126.8002755,37.4456197],[126.8002974,37.4456097],[126.8003080,37.4455897],[126.8003164,37.4455664],[126.8003245,37.4455468],[126.8003280,37.4455230],[126.8003290,37.4455011],[126.8003353,37.4454835],[126.8003310,37.4454646],[126.8003279,37.4454425],[126.8003154,37.4454240],[126.8003036,37.4454046],[126.8002928,37.4453885],[126.8002746,37.4453686],[126.8002582,37.4453495],[126.8002460,37.4453313],[126.8002362,37.4453116],[126.8002292,37.4452911],[126.8002180,37.4452715],[126.8002059,37.4452553],[126.8001947,37.4452349],[126.8001737,37.4452240],[126.8001509,37.4452164],[126.8001229,37.4452115],[126.8000911,37.4452063],[126.8000654,37.4451990],[126.8000410,37.4451893],[126.8000206,37.4451790],[126.7999888,37.4451642],[126.7999653,37.4451510],[126.7999476,37.4451396],[126.7999249,37.4451264],[126.7999016,37.4451161],[126.7998793,37.4451075],[126.7998521,37.4451077],[126.7998373,37.4451230],[126.7998150,37.4451177],[126.7998032,37.4451011],[126.7997867,37.4450825],[126.7997731,37.4450655],[126.7997582,37.4450509],[126.7997375,37.4450345],[126.7997167,37.4450217],[126.7996975,37.4450090],[126.7996798,37.4449948],[126.7996601,37.4449833],[126.7996332,37.4449737],[126.7996093,37.4449631],[126.7995861,37.4449542],[126.7995626,37.4449445],[126.7995419,37.4449358],[126.7995196,37.4449263],[126.7994950,37.4449160],[126.7994738,37.4449076],[126.7994521,37.4449004],[126.7994260,37.4448933],[126.7993982,37.4448977],[126.7993756,37.4449098],[126.7993584,37.4449287],[126.7993492,37.4449461],[126.7993388,37.4449652],[126.7993253,37.4449817],[126.7993085,37.4449998]]]}},{"type":"Feature","properties":{"name":"fused","stroke":"#2060ff","stroke-width":3,"segments":1,"points":72},"geometry":{"type":"MultiLineString","coordinates":[[[126.8002874,37.4459574],[126.8002742,37.4458918],[126.8002497,37.4458613],[126.8002376,37.4458371],[126.8002421,37.4457743],[126.8002445,37.4457332],[126.8002449,37.4456799],[126.8002484,37.4456659],[126.8002513,37.4456536],[126.8002587,37.4456432],[126.8002659,37.4456370],[126.8002736,37.4456283],[126.8002814,37.4456170],[126.8002886,37.4456054],[126.8002919,37.4455984],[126.8002940,37.4455930],[126.8002959,37.4455878],[126.8002975,37.4455823],[126.8002989,37.4455757],[126.8002989,37.4455757],[126.8002989,37.4455757],[126.8002989,37.4455757],[126.8002989,37.4455757],[126.8002582,37.4453495],[126.8002460,37.4453313],[126.8002411,37.4453215],[126.8002373,37.4453117],[126.8002327,37.4453021],[126.8002276,37.4452932],[126.8002227,37.4452845],[126.8002167,37.4452772],[126.8002100,37.4452710],[126.8002020,37.4452655],[126.8001920,37.4452602],[126.8001805,37.4452546],[126.8001805,37.4452546],[126.8001805,37.4452546],[126.8001805,37.4452546],[126.8001805,37.4452546],[126.7999415,37.4451351],[126.7999233,37.4451245],[126.7999127,37.4451204],[126.7999020,37.4451163],[126.7998903,37.4451143],[126.7998810,37.4451140],[126.7998708,37.4451123],[126.7998619,37.4451087],[126.7998528,37.4451055],[126.7998446,37.4451014],[126.7998368,37.4450968],[126.7998289,37.4450919],[126.7998210,37.4450869],[126.7998129,37.4450818],[126.7998049,37.4450766],[126.7998049,37.4450766],[126.7998049,37.4450766],[126.7998049,37.4450766],[126.7998049,37.4450766],[126.7995626,37.4449445],[126.7995419,37.4449358],[126.7995306,37.4449310],[126.7995186,37.4449259],[126.7995074,37.4449214],[126.7994965,37.4449172],[126.7994849,37.4449133],[126.7994726,37.4449111],[126.7994617,37.4449109],[126.7994520,37.4449126],[126.7994433,37.4449154],[126.7994433,37.4449154],[126.7994433,37.4449154],[126.7994433,37.4449154]]]}}]}